CTC2_L_00037016-03
1 69306U 23180UW  26037.47790509  .00000000  00000+0  00000-0 0  9996
2 69306  65.0000 180.0000 0000000   0.0000   0.0000 15.59189987    19
CTC2_L_00037016-04
1 69307U 25485GO  26037.47790509  .00000000  00000+0  00000-0 0  9997
2 69307  65.0000 180.0000 0000000   0.0000  90.0000 15.59189987    19
CTC2_L_00037017-01
1 69308U 25355CT  26037.47790509  .00000000  00000+0  00000-0 0  9994
2 69308  65.0000 192.0000 0000000   0.0000 192.0000 15.59189987    16
CTC2_L_00037017-02
1 69309U 24292GE  26037.47790509  .00000000  00000+0  00000-0 0  9994
2 69309  65.0000 192.0000 0000000   0.0000 282.0000 15.59189987    17
CTC2_L_00037017-03
1 69310U 22187HE  26037.47790509  .00000000  00000+0  00000-0 0  9997
2 69310  65.0000 192.0000 0000000   0.0000  12.0000 15.59189987    10
CTC2_L_00037017-04
1 69311U 24880FS  26037.47790509  .00000000  00000+0  00000-0 0  9990
2 69311  65.0000 192.0000 0000000   0.0000 102.0000 15.59189987    11
CTC2_L_00037018-01
1 69312U 23321YU  26037.47790509  .00000000  00000+0  00000-0 0  9990
2 69312  65.0000 204.0000 0000000   0.0000 204.0000 15.59189987    19
CTC2_L_00037018-02
1 69313U 25658QO  26037.47790509  .00000000  00000+0  00000-0 0  9996
2 69313  65.0000 204.0000 0000000   0.0000 294.0000 15.59189987    19
CTC2_L_00037018-03
1 69314U 25879LJ  26037.47790509  .00000000  00000+0  00000-0 0  9992
2 69314  65.0000 204.0000 0000000   0.0000  24.0000 15.59189987    11
CTC2_L_00037018-04
1 69315U 24813QD  26037.47790509  .00000000  00000+0  00000-0 0  9990
2 69315  65.0000 204.0000 0000000   0.0000 114.0000 15.59189987    12
CTC2_L_00037019-01
1 69316U 25747WL  26037.47790509  .00000000  00000+0  00000-0 0  9998
2 69316  65.0000 216.0000 0000000   0.0000 216.0000 15.59189987    19
CTC2_L_00037019-02
1 69317U 25210WW  26037.47790509  .00000000  00000+0  00000-0 0  9994
2 69317  65.0000 216.0000 0000000   0.0000 306.0000 15.59189987    10
CTC2_L_00037019-03
1 69318U 25605CA  26037.47790509  .00000000  00000+0  00000-0 0  9993
2 69318  65.0000 216.0000 0000000   0.0000  36.0000 15.59189987    11
CTC2_L_00037019-04
1 69319U 26433XM  26037.47790509  .00000000  00000+0  00000-0 0  9994
2 69319  65.0000 216.0000 0000000   0.0000 126.0000 15.59189987    12
CTC2_L_00037020-01
1 69320U 24075TI  26037.47790509  .00000000  00000+0  00000-0 0  9996
2 69320  65.0000 228.0000 0000000   0.0000 228.0000 15.59189987    10
CTC2_L_00037020-02
1 69321U 24991YM  26037.47790509  .00000000  00000+0  00000-0 0  9994
2 69321  65.0000 228.0000 0000000   0.0000 318.0000 15.59189987    11
CTC2_L_00037020-03
1 69322U 22941JA  26037.47790509  .00000000  00000+0  00000-0 0  9998
2 69322  65.0000 228.0000 0000000   0.0000  48.0000 15.59189987    12
CTC2_L_00037020-04
1 69323U 25313ZC  26037.47790509  .00000000  00000+0  00000-0 0  9995
2 69323  65.0000 228.0000 0000000   0.0000 138.0000 15.59189987    13
CTC2_L_00037021-01
1 69324U 24458EX  26037.47790509  .00000000  00000+0  00000-0 0  9995
2 69324  65.0000 240.0000 0000000   0.0000 240.0000 15.59189987    12
CTC2_L_00037021-02
1 69325U 22133LG  26037.47790509  .00000000  00000+0  00000-0 0  9994
2 69325  65.0000 240.0000 0000000   0.0000 330.0000 15.59189987    13
CTC2_L_00037021-03
1 69326U 26822ZX  26037.47790509  .00000000  00000+0  00000-0 0  9994
2 69326  65.0000 240.0000 0000000   0.0000  60.0000 15.59189987    14
CTC2_L_00037021-04
1 69327U 25310KK  26037.47790509  .00000000  00000+0  00000-0 0  9996
2 69327  65.0000 240.0000 0000000   0.0000 150.0000 15.59189987    15
CTC2_L_00037022-01
1 69328U 24175EV  26037.47790509  .00000000  00000+0  00000-0 0  9995
2 69328  65.0000 252.0000 0000000   0.0000 252.0000 15.59189987    12
CTC2_L_00037022-02
1 69329U 22808YT  26037.47790509  .00000000  00000+0  00000-0 0  9997
2 69329  65.0000 252.0000 0000000   0.0000 342.0000 15.59189987    13
CTC2_L_00037022-03
1 69330U 22679IX  26037.47790509  .00000000  00000+0  00000-0 0  9995
2 69330  65.0000 252.0000 0000000   0.0000  72.0000 15.59189987    15
CTC2_L_00037022-04
1 69331U 25037FB  26037.47790509  .00000000  00000+0  00000-0 0  9997
2 69331  65.0000 252.0000 0000000   0.0000 162.0000 15.59189987    16
CTC2_L_00037023-01
1 69332U 23864DC  26037.47790509  .00000000  00000+0  00000-0 0  9994
2 69332  65.0000 264.0000 0000000   0.0000 264.0000 15.59189987    13
CTC2_L_00037023-02
1 69333U 24073UG  26037.47790509  .00000000  00000+0  00000-0 0  9998
2 69333  65.0000 264.0000 0000000   0.0000 354.0000 15.59189987    14
CTC2_L_00037023-03
1 69334U 24320WD  26037.47790509  .00000000  00000+0  00000-0 0  9994
2 69334  65.0000 264.0000 0000000   0.0000  84.0000 15.59189987    15
CTC2_L_00037023-04
1 69335U 24614RM  26037.47790509  .00000000  00000+0  00000-0 0  9991
2 69335  65.0000 264.0000 0000000   0.0000 174.0000 15.59189987    16
CTC2_L_00037024-01
1 69336U 25170TS  26037.47790509  .00000000  00000+0  00000-0 0  9990
2 69336  65.0000 276.0000 0000000   0.0000 276.0000 15.59189987    13
CTC2_L_00037024-02
1 69337U 25183VA  26037.47790509  .00000000  00000+0  00000-0 0  9995
2 69337  65.0000 276.0000 0000000   0.0000   6.0000 15.59189987    15
CTC2_L_00037024-03
1 69338U 26406UJ  26037.47790509  .00000000  00000+0  00000-0 0  9995
2 69338  65.0000 276.0000 0000000   0.0000  96.0000 15.59189987    15
CTC2_L_00037024-04
1 69339U 25431QM  26037.47790509  .00000000  00000+0  00000-0 0  9993
2 69339  65.0000 276.0000 0000000   0.0000 186.0000 15.59189987    16
CTC2_L_00037025-01
1 69340U 23336HD  26037.47790509  .00000000  00000+0  00000-0 0  9997
2 69340  65.0000 288.0000 0000000   0.0000 288.0000 15.59189987    14
CTC2_L_00037025-02
1 69341U 22746RM  26037.47790509  .00000000  00000+0  00000-0 0  9992
2 69341  65.0000 288.0000 0000000   0.0000  18.0000 15.59189987    16
CTC2_L_00037025-03
1 69342U 22708ET  26037.47790509  .00000000  00000+0  00000-0 0  9991
2 69342  65.0000 288.0000 0000000   0.0000 108.0000 15.59189987    17
CTC2_L_00037025-04
1 69343U 23448OQ  26037.47790509  .00000000  00000+0  00000-0 0  9994
2 69343  65.0000 288.0000 0000000   0.0000 198.0000 15.59189987    17
CTC2_L_00037026-01
1 69344U 26755DK  26037.47790509  .00000000  00000+0  00000-0 0  9999
2 69344  65.0000 300.0000 0000000   0.0000 300.0000 15.59189987    18
CTC2_L_00037026-02
1 69345U 26313LU  26037.47790509  .00000000  00000+0  00000-0 0  9990
2 69345  65.0000 300.0000 0000000   0.0000  30.0000 15.59189987    19
CTC2_L_00037026-03
1 69346U 22423NP  26037.47790509  .00000000  00000+0  00000-0 0  9999
2 69346  65.0000 300.0000 0000000   0.0000 120.0000 15.59189987    10
CTC2_L_00037026-04
1 69347U 25004IB  26037.47790509  .00000000  00000+0  00000-0 0  9998
2 69347  65.0000 300.0000 0000000   0.0000 210.0000 15.59189987    11
CTC2_L_00037027-01
1 69348U 24352JJ  26037.47790509  .00000000  00000+0  00000-0 0  9994
2 69348  65.0000 312.0000 0000000   0.0000 312.0000 15.59189987    18
CTC2_L_00037027-02
1 69349U 23842JJ  26037.47790509  .00000000  00000+0  00000-0 0  9998
2 69349  65.0000 312.0000 0000000   0.0000  42.0000 15.59189987    19
CTC2_L_00037027-03
1 69350U 23820PL  26037.47790509  .00000000  00000+0  00000-0 0  9996
2 69350  65.0000 312.0000 0000000   0.0000 132.0000 15.59189987    11
CTC2_L_00037027-04
1 69351U 24191QT  26037.47790509  .00000000  00000+0  00000-0 0  9999
2 69351  65.0000 312.0000 0000000   0.0000 222.0000 15.59189987    12
CTC2_L_00037028-01
1 69352U 26562CU  26037.47790509  .00000000  00000+0  00000-0 0  9994
2 69352  65.0000 324.0000 0000000   0.0000 324.0000 15.59189987    19
CTC2_L_00037028-02
1 69353U 24974PM  26037.47790509  .00000000  00000+0  00000-0 0  9990
2 69353  65.0000 324.0000 0000000   0.0000  54.0000 15.59189987    10
CTC2_L_00037028-03
1 69354U 25242DC  26037.47790509  .00000000  00000+0  00000-0 0  9990
2 69354  65.0000 324.0000 0000000   0.0000 144.0000 15.59189987    11
CTC2_L_00037028-04
1 69355U 24104VA  26037.47790509  .00000000  00000+0  00000-0 0  9997
2 69355  65.0000 324.0000 0000000   0.0000 234.0000 15.59189987    12
CTC2_L_00037029-01
1 69356U 25534XQ  26037.47790509  .00000000  00000+0  00000-0 0  9996
2 69356  65.0000 336.0000 0000000   0.0000 336.0000 15.59189987    19
CTC2_L_00037029-02
1 69357U 22559UF  26037.47790509  .00000000  00000+0  00000-0 0  9991
2 69357  65.0000 336.0000 0000000   0.0000  66.0000 15.59189987    10
CTC2_L_00037029-03
1 69358U 25498QU  26037.47790509  .00000000  00000+0  00000-0 0  9997
2 69358  65.0000 336.0000 0000000   0.0000 156.0000 15.59189987    11
CTC2_L_00037029-04
1 69359U 22416FO  26037.47790509  .00000000  00000+0  00000-0 0  9995
2 69359  65.0000 336.0000 0000000   0.0000 246.0000 15.59189987    12
CTC2_L_00037030-01
1 69360U 22501XX  26037.47790509  .00000000  00000+0  00000-0 0  9992
2 69360  65.0000 348.0000 0000000   0.0000 348.0000 15.59189987    10
CTC2_L_00037030-02
1 69361U 22733AK  26037.47790509  .00000000  00000+0  00000-0 0  9990
2 69361  65.0000 348.0000 0000000   0.0000  78.0000 15.59189987    11
CTC2_L_00037030-03
1 69362U 24442JJ  26037.47790509  .00000000  00000+0  00000-0 0  9990
2 69362  65.0000 348.0000 0000000   0.0000 168.0000 15.59189987    12
CTC2_L_00037030-04
1 69363U 22018DD  26037.47790509  .00000000  00000+0  00000-0 0  9998
2 69363  65.0000 348.0000 0000000   0.0000 258.0000 15.59189987    13
